{
  "type": "FeatureCollection",
  "features": [
    {
      "type": "Feature",
      "properties": {
        "norad_id": 30162,
        "name": "FENGYUN 1C DEB",
        "group": "fengyun-1c-debris",
        "lat": 71.81669280039155,
        "lon": -103.57936303755646,
        "alt_km": 1177.706028829949,
        "timestamp": "2025-12-15T20:48:54.157790+00:00",
        "meta_object_name": "FENGYUN 1C DEB",
        "meta_object_id": "1999-025TT",
        "meta_epoch": "2025-12-14T22:09:37.597248",
        "meta_mean_motion": 13.53407902,
        "meta_eccentricity": 0.03137103,
        "meta_inclination": 99.4889,
        "meta_ra_of_asc_node": 44.9059,
        "meta_arg_of_pericenter": 344.0493,
        "meta_mean_anomaly": 201.7125,
        "meta_ephemeris_type": 0,
        "meta_classification_type": "U",
        "meta_norad_cat_id": 30162,
        "meta_element_set_no": 999,
        "meta_rev_at_epoch": 92690,
        "meta_bstar": 0.0024271308,
        "meta_mean_motion_dot": 2.183e-05,
        "meta_mean_motion_ddot": 0,
        "tle_line1": "1 30162U 99025TT  25348.92335182  .00002183  00000+0  24271-2 0  9993",
        "tle_line2": "2 30162  99.4889  44.9059 0313710 344.0493 201.7125 13.53407902926902"
      },
      "geometry": {
        "type": "Point",
        "coordinates": [
          -103.57936303755646,
          71.81669280039155
        ]
      }
    },
    {
      "type": "Feature",
      "properties": {
        "norad_id": 30163,
        "name": "FENGYUN 1C DEB",
        "group": "fengyun-1c-debris",
        "lat": -44.96910594563222,
        "lon": 113.31678029000156,
        "alt_km": 1109.1123586293525,
        "timestamp": "2025-12-15T20:48:54.157801+00:00",
        "meta_object_name": "FENGYUN 1C DEB",
        "meta_object_id": "1999-025TU",
        "meta_epoch": "2025-12-14T22:22:29.786016",
        "meta_mean_motion": 13.38788965,
        "meta_eccentricity": 0.03736646,
        "meta_inclination": 98.7004,
        "meta_ra_of_asc_node": 103.7152,
        "meta_arg_of_pericenter": 226.9697,
        "meta_mean_anomaly": 259.1598,
        "meta_ephemeris_type": 0,
        "meta_classification_type": "U",
        "meta_norad_cat_id": 30163,
        "meta_element_set_no": 999,
        "meta_rev_at_epoch": 91974,
        "meta_bstar": 0.0019360936,
        "meta_mean_motion_dot": 1.514e-05,
        "meta_mean_motion_ddot": 0,
        "tle_line1": "1 30163U 99025TU  25348.93228919  .00001514  00000+0  19361-2 0  9995",
        "tle_line2": "2 30163  98.7004 103.7152 0373664 226.9697 259.1598 13.38788965919749"
      },
      "geometry": {
        "type": "Point",
        "coordinates": [
          113.31678029000156,
          -44.96910594563222
        ]
      }
    },
    {
      "type": "Feature",
      "properties": {
        "norad_id": 30167,
        "name": "FENGYUN 1C DEB",
        "group": "fengyun-1c-debris",
        "lat": 49.77101483734349,
        "lon": 64.47286473339574,
        "alt_km": 732.2689102823615,
        "timestamp": "2025-12-15T20:48:54.157811+00:00",
        "meta_object_name": "FENGYUN 1C DEB",
        "meta_object_id": "1999-025TY",
        "meta_epoch": "2025-12-14T20:16:00.020352",
        "meta_mean_motion": 14.48550883,
        "meta_eccentricity": 0.01442191,
        "meta_inclination": 98.9679,
        "meta_ra_of_asc_node": 74.1458,
        "meta_arg_of_pericenter": 148.1878,
        "meta_mean_anomaly": 333.2709,
        "meta_ephemeris_type": 0,
        "meta_classification_type": "U",
        "meta_norad_cat_id": 30167,
        "meta_element_set_no": 999,
        "meta_rev_at_epoch": 99389,
        "meta_bstar": 0.00039883494,
        "meta_mean_motion_dot": 1.653e-05,
        "meta_mean_motion_ddot": 0,
        "tle_line1": "1 30167U 99025TY  25348.84444468  .00001653  00000+0  39883-3 0  9994",
        "tle_line2": "2 30167  98.9679  74.1458 0144219 148.1878 333.2709 14.48550883993895"
      },
      "geometry": {
        "type": "Point",
        "coordinates": [
          64.47286473339574,
          49.77101483734349
        ]
      }
    },
    {
      "type": "Feature",
      "properties": {
        "norad_id": 30168,
        "name": "FENGYUN 1C DEB",
        "group": "fengyun-1c-debris",
        "lat": 8.481806572303025,
        "lon": -117.02185408436617,
        "alt_km": 654.2910140610256,
        "timestamp": "2025-12-15T20:48:54.157822+00:00",
        "meta_object_name": "FENGYUN 1C DEB",
        "meta_object_id": "1999-025TZ",
        "meta_epoch": "2025-12-14T15:56:09.238848",
        "meta_mean_motion": 14.52911491,
        "meta_eccentricity": 0.0100515,
        "meta_inclination": 97.3904,
        "meta_ra_of_asc_node": 60.8079,
        "meta_arg_of_pericenter": 148.0306,
        "meta_mean_anomaly": 212.7045,
        "meta_ephemeris_type": 0,
        "meta_classification_type": "U",
        "meta_norad_cat_id": 30168,
        "meta_element_set_no": 999,
        "meta_rev_at_epoch": 98339,
        "meta_bstar": 0.0015598283,
        "meta_mean_motion_dot": 6.831e-05,
        "meta_mean_motion_ddot": 0,
        "tle_line1": "1 30168U 99025TZ  25348.66399582  .00006831  00000+0  15598-2 0  9990",
        "tle_line2": "2 30168  97.3904  60.8079 0100515 148.0306 212.7045 14.52911491983396"
      },
      "geometry": {
        "type": "Point",
        "coordinates": [
          -117.02185408436617,
          8.481806572303025
        ]
      }
    },
    {
      "type": "Feature",
      "properties": {
        "norad_id": 30169,
        "name": "FENGYUN 1C DEB",
        "group": "fengyun-1c-debris",
        "lat": 47.972241685462514,
        "lon": 49.97951964185294,
        "alt_km": 842.4710926212438,
        "timestamp": "2025-12-15T20:48:54.157832+00:00",
        "meta_object_name": "FENGYUN 1C DEB",
        "meta_object_id": "1999-025UA",
        "meta_epoch": "2025-12-14T18:48:58.603104",
        "meta_mean_motion": 14.58163328,
        "meta_eccentricity": 0.02131245,
        "meta_inclination": 98.3368,
        "meta_ra_of_asc_node": 58.2563,
        "meta_arg_of_pericenter": 220.7315,
        "meta_mean_anomaly": 265.2229,
        "meta_ephemeris_type": 0,
        "meta_classification_type": "U",
        "meta_norad_cat_id": 30169,
        "meta_element_set_no": 999,
        "meta_rev_at_epoch": 97753,
        "meta_bstar": 0.0020179389,
        "meta_mean_motion_dot": 0.00012706,
        "meta_mean_motion_ddot": 0,
        "tle_line1": "1 30169U 99025UA  25348.78401161  .00012706  00000+0  20179-2 0  9990",
        "tle_line2": "2 30169  98.3368  58.2563 0213124 220.7315 265.2229 14.58163328977530"
      },
      "geometry": {
        "type": "Point",
        "coordinates": [
          49.97951964185294,
          47.972241685462514
        ]
      }
    },
    {
      "type": "Feature",
      "properties": {
        "norad_id": 30170,
        "name": "FENGYUN 1C DEB",
        "group": "fengyun-1c-debris",
        "lat": 52.35308280074084,
        "lon": 168.45032554801705,
        "alt_km": 929.9788363844618,
        "timestamp": "2025-12-15T20:48:54.157842+00:00",
        "meta_object_name": "FENGYUN 1C DEB",
        "meta_object_id": "1999-025UB",
        "meta_epoch": "2025-12-14T22:13:28.327584",
        "meta_mean_motion": 14.00310858,
        "meta_eccentricity": 0.00769166,
        "meta_inclination": 98.8489,
        "meta_ra_of_asc_node": 335.8889,
        "meta_arg_of_pericenter": 268.5575,
        "meta_mean_anomaly": 156.2495,
        "meta_ephemeris_type": 0,
        "meta_classification_type": "U",
        "meta_norad_cat_id": 30170,
        "meta_element_set_no": 999,
        "meta_rev_at_epoch": 96446,
        "meta_bstar": 0.00047463934,
        "meta_mean_motion_dot": 6.77e-06,
        "meta_mean_motion_ddot": 0,
        "tle_line1": "1 30170U 99025UB  25348.92602231  .00000677  00000+0  47464-3 0  9990",
        "tle_line2": "2 30170  98.8489 335.8889 0076916 268.5575 156.2495 14.00310858964461"
      },
      "geometry": {
        "type": "Point",
        "coordinates": [
          168.45032554801705,
          52.35308280074084
        ]
      }
    },
    {
      "type": "Feature",
      "properties": {
        "norad_id": 30171,
        "name": "FENGYUN 1C DEB",
        "group": "fengyun-1c-debris",
        "lat": -47.29710864682238,
        "lon": -143.48656558992488,
        "alt_km": 829.9652870300879,
        "timestamp": "2025-12-15T20:48:54.157853+00:00",
        "meta_object_name": "FENGYUN 1C DEB",
        "meta_object_id": "1999-025UC",
        "meta_epoch": "2025-12-14T14:05:54.941280",
        "meta_mean_motion": 13.96859521,
        "meta_eccentricity": 0.0184395,
        "meta_inclination": 98.3978,
        "meta_ra_of_asc_node": 206.1329,
        "meta_arg_of_pericenter": 262.1934,
        "meta_mean_anomaly": 95.8262,
        "meta_ephemeris_type": 0,
        "meta_classification_type": "U",
        "meta_norad_cat_id": 30171,
        "meta_element_set_no": 999,
        "meta_rev_at_epoch": 96296,
        "meta_bstar": 0.00027663159,
        "meta_mean_motion_dot": 4.04e-06,
        "meta_mean_motion_ddot": 0,
        "tle_line1": "1 30171U 99025UC  25348.58744145  .00000404  00000+0  27663-3 0  9991",
        "tle_line2": "2 30171  98.3978 206.1329 0184395 262.1934  95.8262 13.96859521962961"
      },
      "geometry": {
        "type": "Point",
        "coordinates": [
          -143.48656558992488,
          -47.29710864682238
        ]
      }
    }
  ]
}